[Satellite]
VERSION=1.1
NAME=LAPAN-TUBSAT
NICKNAME=LAPAN-TUBSAT
TLE1=1 29709U 07001A   15055.44051465  .00000563  00000-0  77818-4 0  9999
TLE2=2 29709  97.6237  55.7213 0012740 342.5057  17.5727 14.81636753439027
